NOAA 15                 
1 25338U 98030A   22229.52808673  .00000134  00000+0  74277-4 0  9995
2 25338  98.6413 258.2558 0011472 117.2157 243.0194 14.26162005261973
DMSP 5D-3 F15 (USA 147) 
1 25991U 99067A   22229.45094189  .00000073  00000+0  59556-4 0  9997
2 25991  99.0561 222.0783 0010546  21.6698 138.8247 14.16561470172424
METEOSAT-8 (MSG-1)      
1 27509U 02040B   22225.69852733  .00000117  00000+0  00000+0 0  9992
2 27509   8.1411  50.3386 0001657 107.4440  97.3373  1.00264874 73187
DMSP 5D-3 F16 (USA 172) 
1 28054U 03048A   22229.54356187  .00000012  00000+0  30100-4 0  9990
2 28054  98.9919 220.6779 0007975 137.8541 329.1983 14.13678045971658
NOAA 18                 
1 28654U 05018A   22229.53902056  .00000151  00000+0  10544-3 0  9999
2 28654  98.9457 299.9177 0014844 155.4382 204.7500 14.12765242888693
METEOSAT-9 (MSG-2)      
1 28912U 05049B   22227.91971434  .00000112  00000+0  00000+0 0  9995
2 28912   6.1500  65.9167 0000209 327.4922 307.7337  1.00277719 60987
EWS-G1 (GOES 13)        
1 29155U 06018A   22228.63401671  .00000025  00000+0  00000+0 0  9996
2 29155   0.7419  96.5250 0005654  99.7592  58.3092  1.00274561 59460
DMSP 5D-3 F17 (USA 191) 
1 29522U 06050A   22229.49347575  .00000023  00000+0  35014-4 0  9993
2 29522  98.7667 243.4031 0011061  88.1679 272.0761 14.14106364814536
FENGYUN 3A              
1 32958U 08026A   22229.47239886  .00000060  00000+0  49012-4 0  9992
2 32958  98.5070 189.6251 0008195 199.8685 160.2173 14.18733444736981
FENGYUN 2E              
1 33463U 08066A   22229.87883382 -.00000213  00000+0  00000+0 0  9998
2 33463   6.0374  64.9478 0002893  23.3597 280.9244  1.00267525 50057
NOAA 19                 
1 33591U 09005A   22229.47638893  .00000130  00000+0  95242-4 0  9999
2 33591  99.1444 264.8838 0014170  21.0226 339.1524 14.12599502697062
GOES 14                 
1 35491U 09033A   22229.33530897 -.00000102  00000+0  00000+0 0  9994
2 35491   0.4582  94.4372 0014816 118.0643 129.3416  1.00272384 48112
METEOR-M 1              
1 35865U 09049A   22229.45668704  .00000064  00000+0  47719-4 0  9997
2 35865  98.5330 197.9736 0003343  61.8138 298.3377 14.22350189670365
DMSP 5D-3 F18 (USA 210) 
1 35951U 09057A   22229.49174831  .00000217  00000+0  13805-3 0  9997
2 35951  98.7266 207.3867 0009857 274.5070  85.4977 14.13540685661730
GOES 15                 
1 36411U 10008A   22229.44125444  .00000044  00000+0  00000+0 0  9995
2 36411   0.4293 276.2512 0004710 245.6617 194.6499  1.00272782 45621
COMS 1                  
1 36744U 10032A   22228.36174856 -.00000358  00000+0  00000+0 0  9991
2 36744   1.2268  92.2247 0000939  66.1649  64.6991  1.00271301 37048
FENGYUN 3B              
1 37214U 10059A   22229.83129424  .00000014  00000+0  31514-4 0  9994
2 37214  99.0932 236.8960 0022074 179.4928 180.6265 14.14262469609631
