[{"OBJECT_NAME":"NOAA 15","OBJECT_ID":"1998-030A","EPOCH":"2022-08-17T12:40:26.693472","MEAN_MOTION":14.26162005,"ECCENTRICITY":0.0011472,"INCLINATION":98.6413,"RA_OF_ASC_NODE":258.2558,"ARG_OF_PERICENTER":117.2157,"MEAN_ANOMALY":243.0194,"EPHEMERIS_TYPE":0,"CLASSIFICATION_TYPE":"U","NORAD_CAT_ID":25338,"ELEMENT_SET_NO":999,"REV_AT_EPOCH":26197,"BSTAR":7.4277e-5,"MEAN_MOTION_DOT":1.34e-6,"MEAN_MOTION_DDOT":0},{"OBJECT_NAME":"DMSP 5D-3 F15 (USA 147)","OBJECT_ID":"1999-067A","EPOCH":"2022-08-17T10:49:21.379296","MEAN_MOTION":14.1656147,"ECCENTRICITY":0.0010546,"INCLINATION":99.0561,"RA_OF_ASC_NODE":222.0783,"ARG_OF_PERICENTER":21.6698,"MEAN_ANOMALY":138.8247,"EPHEMERIS_TYPE":0,"CLASSIFICATION_TYPE":"U","NORAD_CAT_ID":25991,"ELEMENT_SET_NO":999,"REV_AT_EPOCH":17242,"BSTAR":5.9556e-5,"MEAN_MOTION_DOT":7.3e-7,"MEAN_MOTION_DDOT":0},{"OBJECT_NAME":"METEOSAT-8 (MSG-1)","OBJECT_ID":"2002-040B","EPOCH":"2022-08-13T16:45:52.761312","MEAN_MOTION":1.00264874,"ECCENTRICITY":0.0001657,"INCLINATION":8.1411,"RA_OF_ASC_NODE":50.3386,"ARG_OF_PERICENTER":107.444,"MEAN_ANOMALY":97.3373,"EPHEMERIS_TYPE":0,"CLASSIFICATION_TYPE":"U","NORAD_CAT_ID":27509,"ELEMENT_SET_NO":999,"REV_AT_EPOCH":7318,"BSTAR":0,"MEAN_MOTION_DOT":1.17e-6,"MEAN_MOTION_DDOT":0},{"OBJECT_NAME":"DMSP 5D-3 F16 (USA 172)","OBJECT_ID":"2003-048A","EPOCH":"2022-08-17T13:02:43.745568","MEAN_MOTION":14.13678045,"ECCENTRICITY":0.0007975,"INCLINATION":98.9919,"RA_OF_ASC_NODE":220.6779,"ARG_OF_PERICENTER":137.8541,"MEAN_ANOMALY":329.1983,"EPHEMERIS_TYPE":0,"CLASSIFICATION_TYPE":"U","NORAD_CAT_ID":28054,"ELEMENT_SET_NO":999,"REV_AT_EPOCH":97165,"BSTAR":3.01e-5,"MEAN_MOTION_DOT":1.2e-7,"MEAN_MOTION_DDOT":0},{"OBJECT_NAME":"NOAA 18","OBJECT_ID":"2005-018A","EPOCH":"2022-08-17T12:56:11.376384","MEAN_MOTION":14.12765242,"ECCENTRICITY":0.0014844,"INCLINATION":98.9457,"RA_OF_ASC_NODE":299.9177,"ARG_OF_PERICENTER":155.4382,"MEAN_ANOMALY":204.75,"EPHEMERIS_TYPE":0,"CLASSIFICATION_TYPE":"U","NORAD_CAT_ID":28654,"ELEMENT_SET_NO":999,"REV_AT_EPOCH":88869,"BSTAR":0.00010544,"MEAN_MOTION_DOT":1.51e-6,"MEAN_MOTION_DDOT":0},{"OBJECT_NAME":"METEOSAT-9 (MSG-2)","OBJECT_ID":"2005-049B","EPOCH":"2022-08-15T22:04:23.318976","MEAN_MOTION":1.00277719,"ECCENTRICITY":2.09e-5,"INCLINATION":6.15,"RA_OF_ASC_NODE":65.9167,"ARG_OF_PERICENTER":327.4922,"MEAN_ANOMALY":307.7337,"EPHEMERIS_TYPE":0,"CLASSIFICATION_TYPE":"U","NORAD_CAT_ID":28912,"ELEMENT_SET_NO":999,"REV_AT_EPOCH":6098,"BSTAR":0,"MEAN_MOTION_DOT":1.12e-6,"MEAN_MOTION_DDOT":0},{"OBJECT_NAME":"EWS-G1 (GOES 13)","OBJECT_ID":"2006-018A","EPOCH":"2022-08-16T15:12:59.043744","MEAN_MOTION":1.00274561,"ECCENTRICITY":0.0005654,"INCLINATION":0.7419,"RA_OF_ASC_NODE":96.525,"ARG_OF_PERICENTER":99.7592,"MEAN_ANOMALY":58.3092,"EPHEMERIS_TYPE":0,"CLASSIFICATION_TYPE":"U","NORAD_CAT_ID":29155,"ELEMENT_SET_NO":999,"REV_AT_EPOCH":5946,"BSTAR":0,"MEAN_MOTION_DOT":2.5e-7,"MEAN_MOTION_DDOT":0},{"OBJECT_NAME":"DMSP 5D-3 F17 (USA 191)","OBJECT_ID":"2006-050A","EPOCH":"2022-08-17T11:50:36.304800","MEAN_MOTION":14.14106364,"ECCENTRICITY":0.0011061,"INCLINATION":98.7667,"RA_OF_ASC_NODE":243.4031,"ARG_OF_PERICENTER":88.1679,"MEAN_ANOMALY":272.0761,"EPHEMERIS_TYPE":0,"CLASSIFICATION_TYPE":"U","NORAD_CAT_ID":29522,"ELEMENT_SET_NO":999,"REV_AT_EPOCH":81453,"BSTAR":3.5014e-5,"MEAN_MOTION_DOT":2.3e-7,"MEAN_MOTION_DDOT":0},{"OBJECT_NAME":"FENGYUN 3A","OBJECT_ID":"2008-026A","EPOCH":"2022-08-17T11:20:15.261504","MEAN_MOTION":14.18733444,"ECCENTRICITY":0.0008195,"INCLINATION":98.507,"RA_OF_ASC_NODE":189.6251,"ARG_OF_PERICENTER":199.8685,"MEAN_ANOMALY":160.2173,"EPHEMERIS_TYPE":0,"CLASSIFICATION_TYPE":"U","NORAD_CAT_ID":32958,"ELEMENT_SET_NO":999,"REV_AT_EPOCH":73698,"BSTAR":4.9012e-5,"MEAN_MOTION_DOT":6.0e-7,"MEAN_MOTION_DDOT":0},{"OBJECT_NAME":"FENGYUN 2E","OBJECT_ID":"2008-066A","EPOCH":"2022-08-17T21:05:31.242048","MEAN_MOTION":1.00267525,"ECCENTRICITY":0.0002893,"INCLINATION":6.0374,"RA_OF_ASC_NODE":64.9478,"ARG_OF_PERICENTER":23.3597,"MEAN_ANOMALY":280.9244,"EPHEMERIS_TYPE":0,"CLASSIFICATION_TYPE":"U","NORAD_CAT_ID":33463,"ELEMENT_SET_NO":999,"REV_AT_EPOCH":5005,"BSTAR":0,"MEAN_MOTION_DOT":-2.13e-6,"MEAN_MOTION_DDOT":0},{"OBJECT_NAME":"NOAA 19","OBJECT_ID":"2009-005A","EPOCH":"2022-08-17T11:26:00.003552","MEAN_MOTION":14.12599502,"ECCENTRICITY":0.001417,"INCLINATION":99.1444,"RA_OF_ASC_NODE":264.8838,"ARG_OF_PERICENTER":21.0226,"MEAN_ANOMALY":339.1524,"EPHEMERIS_TYPE":0,"CLASSIFICATION_TYPE":"U","NORAD_CAT_ID":33591,"ELEMENT_SET_NO":999,"REV_AT_EPOCH":69706,"BSTAR":9.5242e-5,"MEAN_MOTION_DOT":1.3e-6,"MEAN_MOTION_DDOT":0},{"OBJECT_NAME":"GOES 14","OBJECT_ID":"2009-033A","EPOCH":"2022-08-17T08:02:50.695008","MEAN_MOTION":1.00272384,"ECCENTRICITY":0.0014816,"INCLINATION":0.4582,"RA_OF_ASC_NODE":94.4372,"ARG_OF_PERICENTER":118.0643,"MEAN_ANOMALY":129.3416,"EPHEMERIS_TYPE":0,"CLASSIFICATION_TYPE":"U","NORAD_CAT_ID":35491,"ELEMENT_SET_NO":999,"REV_AT_EPOCH":4811,"BSTAR":0,"MEAN_MOTION_DOT":-1.02e-6,"MEAN_MOTION_DDOT":0},{"OBJECT_NAME":"METEOR-M 1","OBJECT_ID":"2009-049A","EPOCH":"2022-08-17T10:57:37.760256","MEAN_MOTION":14.22350189,"ECCENTRICITY":0.0003343,"INCLINATION":98.533,"RA_OF_ASC_NODE":197.9736,"ARG_OF_PERICENTER":61.8138,"MEAN_ANOMALY":298.3377,"EPHEMERIS_TYPE":0,"CLASSIFICATION_TYPE":"U","NORAD_CAT_ID":35865,"ELEMENT_SET_NO":999,"REV_AT_EPOCH":67036,"BSTAR":4.7719e-5,"MEAN_MOTION_DOT":6.4e-7,"MEAN_MOTION_DDOT":0},{"OBJECT_NAME":"DMSP 5D-3 F18 (USA 210)","OBJECT_ID":"2009-057A","EPOCH":"2022-08-17T11:48:07.053984","MEAN_MOTION":14.13540685,"ECCENTRICITY":0.0009857,"INCLINATION":98.7266,"RA_OF_ASC_NODE":207.3867,"ARG_OF_PERICENTER":274.507,"MEAN_ANOMALY":85.4977,"EPHEMERIS_TYPE":0,"CLASSIFICATION_TYPE":"U","NORAD_CAT_ID":35951,"ELEMENT_SET_NO":999,"REV_AT_EPOCH":66173,"BSTAR":0.00013805,"MEAN_MOTION_DOT":2.17e-6,"MEAN_MOTION_DDOT":0},{"OBJECT_NAME":"GOES 15","OBJECT_ID":"2010-008A","EPOCH":"2022-08-17T10:35:24.383616","MEAN_MOTION":1.00272782,"ECCENTRICITY":0.000471,"INCLINATION":0.4293,"RA_OF_ASC_NODE":276.2512,"ARG_OF_PERICENTER":245.6617,"MEAN_ANOMALY":194.6499,"EPHEMERIS_TYPE":0,"CLASSIFICATION_TYPE":"U","NORAD_CAT_ID":36411,"ELEMENT_SET_NO":999,"REV_AT_EPOCH":4562,"BSTAR":0,"MEAN_MOTION_DOT":4.4e-7,"MEAN_MOTION_DDOT":0},{"OBJECT_NAME":"COMS 1","OBJECT_ID":"2010-032A","EPOCH":"2022-08-16T08:40:55.075584","MEAN_MOTION":1.00271301,"ECCENTRICITY":9.39e-5,"INCLINATION":1.2268,"RA_OF_ASC_NODE":92.2247,"ARG_OF_PERICENTER":66.1649,"MEAN_ANOMALY":64.6991,"EPHEMERIS_TYPE":0,"CLASSIFICATION_TYPE":"U","NORAD_CAT_ID":36744,"ELEMENT_SET_NO":999,"REV_AT_EPOCH":3704,"BSTAR":0,"MEAN_MOTION_DOT":-3.58e-6,"MEAN_MOTION_DDOT":0},{"OBJECT_NAME":"FENGYUN 3B","OBJECT_ID":"2010-059A","EPOCH":"2022-08-17T19:57:03.822336","MEAN_MOTION":14.14262469,"ECCENTRICITY":0.0022074,"INCLINATION":99.0932,"RA_OF_ASC_NODE":236.896,"ARG_OF_PERICENTER":179.4928,"MEAN_ANOMALY":180.6265,"EPHEMERIS_TYPE":0,"CLASSIFICATION_TYPE":"U","NORAD_CAT_ID":37214,"ELEMENT_SET_NO":999,"REV_AT_EPOCH":60963,"BSTAR":3.1514e-5,"MEAN_MOTION_DOT":1.4e-7,"MEAN_MOTION_DDOT":0}]